{
  "type": "FeatureCollection",
  "features": [
    {
      "type": "Feature",
      "properties": {
        "norad_id": 66732,
        "name": "FLOCK 4H-29",
        "group": "last-30-days",
        "lat": 23.454886518736934,
        "lon": 68.97474959978948,
        "alt_km": 514.2911479072836,
        "timestamp": "2025-12-26T17:24:53.440174+00:00",
        "meta_object_name": "FLOCK 4H-29",
        "meta_object_id": "2025-276BU",
        "meta_epoch": "2025-12-26T06:13:53.944032",
        "meta_mean_motion": 15.17318835,
        "meta_eccentricity": 0.00019639,
        "meta_inclination": 97.4367,
        "meta_ra_of_asc_node": 71.7662,
        "meta_arg_of_pericenter": 261.2564,
        "meta_mean_anomaly": 98.8447,
        "meta_ephemeris_type": 0,
        "meta_classification_type": "U",
        "meta_norad_cat_id": 66732,
        "meta_element_set_no": 999,
        "meta_rev_at_epoch": 417,
        "meta_bstar": 0.00034012721,
        "meta_mean_motion_dot": 6.717e-05,
        "meta_mean_motion_ddot": 0,
        "tle_line1": "1 66732U 25276BU  25360.25965213  .00006717  00000+0  34013-3 0  9999",
        "tle_line2": "2 66732  97.4367  71.7662 0001963 261.2564  98.8447 15.17318835  4170"
      },
      "geometry": {
        "type": "Point",
        "coordinates": [
          68.97474959978948,
          23.454886518736934
        ]
      }
    },
    {
      "type": "Feature",
      "properties": {
        "norad_id": 66733,
        "name": "FLOCK 4H-30",
        "group": "last-30-days",
        "lat": 16.929098173538573,
        "lon": 69.96655128485052,
        "alt_km": 516.0737954983333,
        "timestamp": "2025-12-26T17:24:53.440185+00:00",
        "meta_object_name": "FLOCK 4H-30",
        "meta_object_id": "2025-276BV",
        "meta_epoch": "2025-12-26T01:30:43.503264",
        "meta_mean_motion": 15.17290543,
        "meta_eccentricity": 0.00031536,
        "meta_inclination": 97.443,
        "meta_ra_of_asc_node": 71.5961,
        "meta_arg_of_pericenter": 248.0816,
        "meta_mean_anomaly": 112.0082,
        "meta_ephemeris_type": 0,
        "meta_classification_type": "U",
        "meta_norad_cat_id": 66733,
        "meta_element_set_no": 999,
        "meta_rev_at_epoch": 414,
        "meta_bstar": 0.00043041115,
        "meta_mean_motion_dot": 8.513e-05,
        "meta_mean_motion_ddot": 0,
        "tle_line1": "1 66733U 25276BV  25360.06300351  .00008513  00000+0  43041-3 0  9992",
        "tle_line2": "2 66733  97.4430  71.5961 0003153 248.0816 112.0082 15.17290543  4144"
      },
      "geometry": {
        "type": "Point",
        "coordinates": [
          69.96655128485052,
          16.929098173538573
        ]
      }
    },
    {
      "type": "Feature",
      "properties": {
        "norad_id": 66734,
        "name": "FLOCK 4H-31",
        "group": "last-30-days",
        "lat": 16.964914195692135,
        "lon": 69.93740972614629,
        "alt_km": 515.7312552962148,
        "timestamp": "2025-12-26T17:24:53.440195+00:00",
        "meta_object_name": "FLOCK 4H-31",
        "meta_object_id": "2025-276BW",
        "meta_epoch": "2025-12-26T03:05:39.243552",
        "meta_mean_motion": 15.17242621,
        "meta_eccentricity": 0.00024498,
        "meta_inclination": 97.4366,
        "meta_ra_of_asc_node": 71.6354,
        "meta_arg_of_pericenter": 255.3395,
        "meta_mean_anomaly": 104.7568,
        "meta_ephemeris_type": 0,
        "meta_classification_type": "U",
        "meta_norad_cat_id": 66734,
        "meta_element_set_no": 999,
        "meta_rev_at_epoch": 415,
        "meta_bstar": 0.0003038604,
        "meta_mean_motion_dot": 5.98e-05,
        "meta_mean_motion_ddot": 0,
        "tle_line1": "1 66734U 25276BW  25360.12892643  .00005980  00000+0  30386-3 0  9993",
        "tle_line2": "2 66734  97.4366  71.6354 0002449 255.3395 104.7568 15.17242621  4152"
      },
      "geometry": {
        "type": "Point",
        "coordinates": [
          69.93740972614629,
          16.964914195692135
        ]
      }
    },
    {
      "type": "Feature",
      "properties": {
        "norad_id": 66735,
        "name": "FLOCK 4H-32",
        "group": "last-30-days",
        "lat": 14.99550098659196,
        "lon": 70.23602271350398,
        "alt_km": 516.7155738181427,
        "timestamp": "2025-12-26T17:24:53.440205+00:00",
        "meta_object_name": "FLOCK 4H-32",
        "meta_object_id": "2025-276BX",
        "meta_epoch": "2025-12-26T01:31:13.429632",
        "meta_mean_motion": 15.1726705,
        "meta_eccentricity": 0.00035406,
        "meta_inclination": 97.4422,
        "meta_ra_of_asc_node": 71.5921,
        "meta_arg_of_pericenter": 243.2948,
        "meta_mean_anomaly": 116.7923,
        "meta_ephemeris_type": 0,
        "meta_classification_type": "U",
        "meta_norad_cat_id": 66735,
        "meta_element_set_no": 999,
        "meta_rev_at_epoch": 414,
        "meta_bstar": 0.00035347251,
        "meta_mean_motion_dot": 6.974e-05,
        "meta_mean_motion_ddot": 0,
        "tle_line1": "1 66735U 25276BX  25360.06334988  .00006974  00000+0  35347-3 0  9996",
        "tle_line2": "2 66735  97.4422  71.5921 0003540 243.2948 116.7923 15.17267050  4148"
      },
      "geometry": {
        "type": "Point",
        "coordinates": [
          70.23602271350398,
          14.99550098659196
        ]
      }
    },
    {
      "type": "Feature",
      "properties": {
        "norad_id": 66736,
        "name": "FLOCK 4H-33",
        "group": "last-30-days",
        "lat": 58.35242917244435,
        "lon": -95.46934166854774,
        "alt_km": 503.4685478532665,
        "timestamp": "2025-12-26T17:24:53.440215+00:00",
        "meta_object_name": "FLOCK 4H-33",
        "meta_object_id": "2025-276BY",
        "meta_epoch": "2025-12-26T05:48:46.700352",
        "meta_mean_motion": 15.18342211,
        "meta_eccentricity": 0.0002893,
        "meta_inclination": 97.4419,
        "meta_ra_of_asc_node": 71.8111,
        "meta_arg_of_pericenter": 150.6536,
        "meta_mean_anomaly": 209.4861,
        "meta_ephemeris_type": 0,
        "meta_classification_type": "U",
        "meta_norad_cat_id": 66736,
        "meta_element_set_no": 999,
        "meta_rev_at_epoch": 417,
        "meta_bstar": 0.00050115981,
        "meta_mean_motion_dot": 0.0001023,
        "meta_mean_motion_ddot": 0,
        "tle_line1": "1 66736U 25276BY  25360.24220718  .00010230  00000+0  50116-3 0  9993",
        "tle_line2": "2 66736  97.4419  71.8111 0002893 150.6536 209.4861 15.18342211  4171"
      },
      "geometry": {
        "type": "Point",
        "coordinates": [
          -95.46934166854774,
          58.35242917244435
        ]
      }
    },
    {
      "type": "Feature",
      "properties": {
        "norad_id": 66737,
        "name": "FLOCK 4H-34",
        "group": "last-30-days",
        "lat": 69.04041678437228,
        "lon": -87.75692774295199,
        "alt_km": 503.3944885153569,
        "timestamp": "2025-12-26T17:24:53.440224+00:00",
        "meta_object_name": "FLOCK 4H-34",
        "meta_object_id": "2025-276BZ",
        "meta_epoch": "2025-12-26T05:51:39.365568",
        "meta_mean_motion": 15.18196681,
        "meta_eccentricity": 0.0002398,
        "meta_inclination": 97.4431,
        "meta_ra_of_asc_node": 71.8139,
        "meta_arg_of_pericenter": 154.8808,
        "meta_mean_anomaly": 205.2543,
        "meta_ephemeris_type": 0,
        "meta_classification_type": "U",
        "meta_norad_cat_id": 66737,
        "meta_element_set_no": 999,
        "meta_rev_at_epoch": 342,
        "meta_bstar": 0.00028116948,
        "meta_mean_motion_dot": 5.683e-05,
        "meta_mean_motion_ddot": 0,
        "tle_line1": "1 66737U 25276BZ  25360.24420562  .00005683  00000+0  28117-3 0  9995",
        "tle_line2": "2 66737  97.4431  71.8139 0002398 154.8808 205.2543 15.18196681  3420"
      },
      "geometry": {
        "type": "Point",
        "coordinates": [
          -87.75692774295199,
          69.04041678437228
        ]
      }
    },
    {
      "type": "Feature",
      "properties": {
        "norad_id": 66738,
        "name": "FLOCK 4H-35",
        "group": "last-30-days",
        "lat": 59.268044274123284,
        "lon": -95.0260898258379,
        "alt_km": 503.5701844292671,
        "timestamp": "2025-12-26T17:24:53.440235+00:00",
        "meta_object_name": "FLOCK 4H-35",
        "meta_object_id": "2025-276CA",
        "meta_epoch": "2025-12-26T05:49:00.250464",
        "meta_mean_motion": 15.18288305,
        "meta_eccentricity": 0.00026528,
        "meta_inclination": 97.4396,
        "meta_ra_of_asc_node": 71.8016,
        "meta_arg_of_pericenter": 141.7919,
        "meta_mean_anomaly": 218.3504,
        "meta_ephemeris_type": 0,
        "meta_classification_type": "U",
        "meta_norad_cat_id": 66738,
        "meta_element_set_no": 999,
        "meta_rev_at_epoch": 346,
        "meta_bstar": 0.00045271705,
        "meta_mean_motion_dot": 9.219e-05,
        "meta_mean_motion_ddot": 0,
        "tle_line1": "1 66738U 25276CA  25360.24236401  .00009219  00000+0  45272-3 0  9993",
        "tle_line2": "2 66738  97.4396  71.8016 0002652 141.7919 218.3504 15.18288305  3467"
      },
      "geometry": {
        "type": "Point",
        "coordinates": [
          -95.0260898258379,
          59.268044274123284
        ]
      }
    }
  ]
}